[{"OBJECT_NAME":"GAOFEN-2","OBJECT_ID":"2014-049A","EPOCH":"2026-03-09T23:35:46.910976","MEAN_MOTION":14.80770566,"ECCENTRICITY":0.00070783,"INCLINATION":98.0218,"RA_OF_ASC_NODE":133.2442,"ARG_OF_PERICENTER":184.3502,"MEAN_ANOMALY":175.765,"EPHEMERIS_TYPE":0,"CLASSIFICATION_TYPE":"U","NORAD_CAT_ID":40118,"ELEMENT_SET_NO":999,"REV_AT_EPOCH":62455,"BSTAR":6.8905409e-5,"MEAN_MOTION_DOT":4.77e-6,"MEAN_MOTION_DDOT":0},{"OBJECT_NAME":"CZ-4B DEB","OBJECT_ID":"1999-057CG","EPOCH":"2026-03-09T19:49:44.516352","MEAN_MOTION":14.71340289,"ECCENTRICITY":0.00410438,"INCLINATION":98.1706,"RA_OF_ASC_NODE":27.9989,"ARG_OF_PERICENTER":290.2502,"MEAN_ANOMALY":127.341,"EPHEMERIS_TYPE":0,"CLASSIFICATION_TYPE":"U","NORAD_CAT_ID":26194,"ELEMENT_SET_NO":999,"REV_AT_EPOCH":63030,"BSTAR":0.0005829143,"MEAN_MOTION_DOT":3.599e-5,"MEAN_MOTION_DDOT":0}]
